ONEWEB-0464             
1 51651U 22012AF  26170.17121153 -.00000177  00000+0 -54555-3 0  9995
2 51651  87.8822  35.8859 0001494  76.7040 283.4254 13.10232152209587
ONEWEB-0468             
1 51652U 22012AG  26170.17729141  .00002761  00000+0  78560-2 0  9997
2 51652  87.8826  35.8786 0001376  77.1877 282.9404 13.10498394209564
ONEWEB-0473             
1 51653U 22012AH  26170.08647263 -.00000283  00000+0 -84690-3 0  9993
2 51653  87.8824  35.8980 0001772  78.8566 281.2760 13.10266983209555
ONEWEB-0474             
1 51654U 22012AJ  26170.07811724  .00000582  00000+0  16341-2 0  9995
2 51654  87.8840  35.8843 0001568  75.0455 285.0846 13.10298154209542
ONEWEB-0475             
1 51655U 22012AK  26170.27262406  .00000033  00000+0  51200-4 0  9991
2 51655  87.9132   5.4577 0001430  70.8162 289.3124 13.17648740213965
ONEWEB-0490             
1 54113U 22138A   26170.10582314  .00000098  00000+0  21359-3 0  9999
2 54113  87.9178 304.5846 0001731 102.8728 257.2598 13.19724876177085
ONEWEB-0492             
1 54114U 22138B   26169.90364779 -.00000029  00000+0 -10493-3 0  9992
2 54114  87.9172 304.6262 0001851 107.2120 252.9216 13.19726133177066
ONEWEB-0495             
1 54115U 22138C   26169.88153169  .00000012  00000+0 -21698-5 0  9991
2 54115  87.9171 304.6328 0001316 111.8838 248.2435 13.19724455177046
ONEWEB-0497             
1 54116U 22138D   26170.12161843  .00000049  00000+0  91010-4 0  9992
2 54116  87.9179 304.5773 0001814 101.0572 259.0765 13.19724731177062
ONEWEB-0499             
1 54117U 22138E   26170.10502940  .00000027  00000+0  35316-4 0  9991
2 54117  87.9172 304.5896 0001617  99.2468 260.8848 13.19726780177074
ONEWEB-0500             
1 54118U 22138F   26169.87995025 -.00000007  00000+0 -51017-4 0  9990
2 54118  87.9178 304.6289 0001968 100.8926 259.2429 13.19724246177055
ONEWEB-0501             
1 54119U 22138G   26170.13741129  .00000072  00000+0  14742-3 0  9999
2 54119  87.9180 304.5772 0001467 106.5962 253.5332 13.19723609177065
ONEWEB-0502             
1 54120U 22138H   26170.12319170 -.00000094  00000+0 -26794-3 0  9993
2 54120  87.9180 304.5689 0001618  96.7972 263.3345 13.19723262177083
ONEWEB-0503             
1 54121U 22138J   26170.11214105  .00000036  00000+0  57968-4 0  9997
2 54121  87.9182 304.5771 0001905  91.1870 268.9481 13.19724460177075
ONEWEB-0504             
1 54122U 22138K   26170.09950844  .00000110  00000+0  24141-3 0  9991
2 54122  87.9180 304.5846 0001628  96.5675 263.5643 13.19724898177088
ONEWEB-0505             
1 54123U 22138L   26170.09634850  .00000038  00000+0  63602-4 0  9993
2 54123  87.9180 304.5862 0001385 101.9266 258.2023 13.19726218177063
